start=new Date('2023-04-25T00:00:00.000Z').valueOf();
sats=[{"SITE":"AFETR","RA_OF_ASC_NODE":"176.4434","CENTER_NAME":"EARTH","TIME_SYSTEM":"UTC","ARG_OF_PERICENTER":"263.2882","PERIAPSIS":"497.372","MEAN_ELEMENT_THEORY":"SGP4","PERIOD":"94.593","RCS_SIZE":"LARGE","OBJECT_NAME":"STARLINK-1748","INCLINATION":"53.0431","MEAN_MOTION":"15.22317208","MEAN_MOTION_DOT":"0.00044425","EPOCH":"2023-04-24T03:30:31.815648","MEAN_MOTION_DDOT":"0.0000000000000","REF_FRAME":"TEME","APOAPSIS":"500.339","REV_AT_EPOCH":"14167","OBJECT_ID":"2020-070AQ","TLE_LINE2":"2 46570  53.0431 176.4434 0002157 263.2882  96.7868 15.22317208141679","DECAY_DATE":null,"FILE":"3893330","OBJECT_TYPE":"PAYLOAD","BSTAR":"0.00190570000000","NORAD_CAT_ID":"46570","EPHEMERIS_TYPE":"0","GP_ID":"230695179","ELEMENT_SET_NO":"999","SEMIMAJOR_AXIS":"6876.990","LAUNCH_DATE":"2020-10-06","CLASSIFICATION_TYPE":"U","MEAN_ANOMALY":"96.7868","ECCENTRICITY":"0.00021570","TLE_LINE1":"1 46570U 20070AQ  23114.14620157  .00044425  00000-0  19057-2 0  9991","COUNTRY_CODE":"US"},{"MEAN_ANOMALY":"301.2563","ECCENTRICITY":"0.00023620","TLE_LINE1":"1 46572U 20070AS  23114.30070480  .00114406  00000-0  75538-2 0  9992","COUNTRY_CODE":"US","ELEMENT_SET_NO":"999","SEMIMAJOR_AXIS":"6925.018","LAUNCH_DATE":"2020-10-06","CLASSIFICATION_TYPE":"U","DECAY_DATE":null,"FILE":"3893330","BSTAR":"0.00755380000000","OBJECT_TYPE":"PAYLOAD","NORAD_CAT_ID":"46572","EPHEMERIS_TYPE":"0","GP_ID":"230695927","MEAN_MOTION_DDOT":"0.0000000000000","REF_FRAME":"TEME","APOAPSIS":"548.519","REV_AT_EPOCH":"14118","OBJECT_ID":"2020-070AS","TLE_LINE2":"2 46572  53.0527 211.9864 0002362  58.8657 301.2563 15.06507786141181","OBJECT_NAME":"STARLINK-1531","INCLINATION":"53.0527","MEAN_MOTION":"15.06507786","MEAN_MOTION_DOT":"0.00114406","EPOCH":"2023-04-24T07:13:00.894720","PERIOD":"95.585","RCS_SIZE":"LARGE","MEAN_ELEMENT_THEORY":"SGP4","PERIAPSIS":"545.248","ARG_OF_PERICENTER":"58.8657","SITE":"AFETR","RA_OF_ASC_NODE":"211.9864","CENTER_NAME":"EARTH","TIME_SYSTEM":"UTC"},{"EPOCH":"2023-04-24T14:00:01.000224","MEAN_MOTION_DOT":"0.00398897","MEAN_MOTION":"15.77120421","OBJECT_NAME":"STARLINK-1650","INCLINATION":"53.0428","RCS_SIZE":"LARGE","PERIOD":"91.306","MEAN_ELEMENT_THEORY":"SGP4","PERIAPSIS":"332.788","ARG_OF_PERICENTER":"17.6123","TIME_SYSTEM":"UTC","CENTER_NAME":"EARTH","RA_OF_ASC_NODE":"145.4089","SITE":"AFETR","COUNTRY_CODE":"US","TLE_LINE1":"1 46573U 20070AT  23114.58334491  .00398897  00000-0  22852-2 0  9997","ECCENTRICITY":"0.00086620","MEAN_ANOMALY":"122.3862","CLASSIFICATION_TYPE":"U","LAUNCH_DATE":"2020-10-06","SEMIMAJOR_AXIS":"6716.741","ELEMENT_SET_NO":"999","GP_ID":"230696679","BSTAR":"0.00228520000000","OBJECT_TYPE":"PAYLOAD","NORAD_CAT_ID":"46573","EPHEMERIS_TYPE":"0","DECAY_DATE":null,"FILE":"3893330","TLE_LINE2":"2 46573  53.0428 145.4089 0008662  17.6123 122.3862 15.77120421  1300","REV_AT_EPOCH":"130","OBJECT_ID":"2020-070AT","REF_FRAME":"TEME","APOAPSIS":"344.424","MEAN_MOTION_DDOT":"0.0000000000000"},{"GP_ID":"230706869","OBJECT_TYPE":"PAYLOAD","EPHEMERIS_TYPE":"0","BSTAR":"0.00613230000000","NORAD_CAT_ID":"46574","FILE":"3893503","DECAY_DATE":null,"REV_AT_EPOCH":"14139","OBJECT_ID":"2020-070AU","TLE_LINE2":"2 46574  53.0531 197.1607 0000745  94.9774 265.1300 15.06474182141395","APOAPSIS":"547.502","REF_FRAME":"TEME","MEAN_MOTION_DDOT":"0.0000000000000","COUNTRY_CODE":"US","ECCENTRICITY":"0.00007450","TLE_LINE1":"1 46574U 20070AU  23114.26431110  .00092449  00000-0  61323-2 0  9999","MEAN_ANOMALY":"265.1300","LAUNCH_DATE":"2020-10-06","CLASSIFICATION_TYPE":"U","SEMIMAJOR_AXIS":"6925.121","ELEMENT_SET_NO":"999","PERIAPSIS":"546.470","ARG_OF_PERICENTER":"94.9774","MEAN_ELEMENT_THEORY":"SGP4","TIME_SYSTEM":"UTC","CENTER_NAME":"EARTH","RA_OF_ASC_NODE":"197.1607","SITE":"AFETR","EPOCH":"2023-04-24T06:20:36.479040","MEAN_MOTION_DOT":"0.00092449","INCLINATION":"53.0531","OBJECT_NAME":"STARLINK-1660","MEAN_MOTION":"15.06474182","RCS_SIZE":"LARGE","PERIOD":"95.587"},{"MEAN_ELEMENT_THEORY":"SGP4","PERIAPSIS":"545.993","ARG_OF_PERICENTER":"94.8602","SITE":"AFETR","RA_OF_ASC_NODE":"170.4195","CENTER_NAME":"EARTH","TIME_SYSTEM":"UTC","MEAN_MOTION":"15.06433299","INCLINATION":"53.0513","OBJECT_NAME":"STARLINK-1675","MEAN_MOTION_DOT":"0.00051481","EPOCH":"2023-04-24T15:38:35.308320","PERIOD":"95.590","RCS_SIZE":"LARGE","DECAY_DATE":null,"FILE":"3893506","BSTAR":"0.00344680000000","OBJECT_TYPE":"PAYLOAD","NORAD_CAT_ID":"46575","EPHEMERIS_TYPE":"0","GP_ID":"230706410","MEAN_MOTION_DDOT":"0.0000000000000","REF_FRAME":"TEME","APOAPSIS":"548.230","TLE_LINE2":"2 46575  53.0513 170.4195 0001615  94.8602 265.2571 15.06433299141809","OBJECT_ID":"2020-070AV","REV_AT_EPOCH":"14180","MEAN_ANOMALY":"265.2571","TLE_LINE1":"1 46575U 20070AV  23114.65179755  .00051481  00000-0  34468-2 0  9998","ECCENTRICITY":"0.00016150","COUNTRY_CODE":"US","ELEMENT_SET_NO":"999","SEMIMAJOR_AXIS":"6925.247","LAUNCH_DATE":"2020-10-06","CLASSIFICATION_TYPE":"U"},{"OBJECT_TYPE":"PAYLOAD","EPHEMERIS_TYPE":"0","BSTAR":"0.00707080000000","NORAD_CAT_ID":"46576","GP_ID":"230706420","DECAY_DATE":null,"FILE":"3893507","APOAPSIS":"547.821","REF_FRAME":"TEME","REV_AT_EPOCH":"14144","OBJECT_ID":"2020-070AW","TLE_LINE2":"2 46576  53.0536 195.7040 0001157  86.8691 273.2430 15.06463298141449","MEAN_MOTION_DDOT":"0.0000000000000","ECCENTRICITY":"0.00011570","TLE_LINE1":"1 46576U 20070AW  23114.58867106  .00106827  00000-0  70708-2 0  9997","COUNTRY_CODE":"US","MEAN_ANOMALY":"273.2430","CLASSIFICATION_TYPE":"U","LAUNCH_DATE":"2020-10-06","ELEMENT_SET_NO":"999","SEMIMAJOR_AXIS":"6925.155","PERIAPSIS":"546.218","MEAN_ELEMENT_THEORY":"SGP4","ARG_OF_PERICENTER":"86.8691","CENTER_NAME":"EARTH","TIME_SYSTEM":"UTC","SITE":"AFETR","RA_OF_ASC_NODE":"195.7040","MEAN_MOTION_DOT":"0.00106827","EPOCH":"2023-04-24T14:07:41.179584","INCLINATION":"53.0536","OBJECT_NAME":"STARLINK-1677","MEAN_MOTION":"15.06463298","RCS_SIZE":"LARGE","PERIOD":"95.588"},{"SEMIMAJOR_AXIS":"6925.310","ELEMENT_SET_NO":"999","LAUNCH_DATE":"2020-10-06","CLASSIFICATION_TYPE":"U","MEAN_ANOMALY":"285.1025","COUNTRY_CODE":"US","TLE_LINE1":"1 46577U 20070AX  23113.95471147  .00003014  00000-0  22103-3 0  9995","ECCENTRICITY":"0.00004650","MEAN_MOTION_DDOT":"0.0000000000000","TLE_LINE2":"2 46577  53.0536 198.5539 0000465  75.0015 285.1025 15.06412428141345","REV_AT_EPOCH":"14134","OBJECT_ID":"2020-070AX","REF_FRAME":"TEME","APOAPSIS":"547.497","FILE":"3893330","DECAY_DATE":null,"GP_ID":"230696179","OBJECT_TYPE":"PAYLOAD","NORAD_CAT_ID":"46577","BSTAR":"0.00022103000000","EPHEMERIS_TYPE":"0","PERIOD":"95.591","RCS_SIZE":"LARGE","MEAN_MOTION":"15.06412428","OBJECT_NAME":"STARLINK-1682","INCLINATION":"53.0536","EPOCH":"2023-04-23T22:54:47.071008","MEAN_MOTION_DOT":"0.00003014","RA_OF_ASC_NODE":"198.5539","SITE":"AFETR","TIME_SYSTEM":"UTC","CENTER_NAME":"EARTH","PERIAPSIS":"546.853","MEAN_ELEMENT_THEORY":"SGP4","ARG_OF_PERICENTER":"75.0015"},{"MEAN_MOTION_DOT":"0.00070513","EPOCH":"2023-04-24T15:58:29.917920","OBJECT_NAME":"STARLINK-1683","INCLINATION":"53.0523","MEAN_MOTION":"15.06440828","RCS_SIZE":"LARGE","PERIOD":"95.590","PERIAPSIS":"546.317","MEAN_ELEMENT_THEORY":"SGP4","ARG_OF_PERICENTER":"110.7559","CENTER_NAME":"EARTH","TIME_SYSTEM":"UTC","SITE":"AFETR","RA_OF_ASC_NODE":"180.4066","ECCENTRICITY":"0.00011140","TLE_LINE1":"1 46578U 20070AY  23114.66562405  .00070513  00000-0  47005-2 0  9998","COUNTRY_CODE":"US","MEAN_ANOMALY":"249.3549","LAUNCH_DATE":"2020-10-06","CLASSIFICATION_TYPE":"U","ELEMENT_SET_NO":"999","SEMIMAJOR_AXIS":"6925.223","OBJECT_TYPE":"PAYLOAD","BSTAR":"0.00470050000000","NORAD_CAT_ID":"46578","EPHEMERIS_TYPE":"0","GP_ID":"230706453","FILE":"3893508","DECAY_DATE":null,"APOAPSIS":"547.860","REF_FRAME":"TEME","REV_AT_EPOCH":"14136","OBJECT_ID":"2020-070AY","TLE_LINE2":"2 46578  53.0523 180.4066 0001114 110.7559 249.3549 15.06440828141369","MEAN_MOTION_DDOT":"0.0000000000000"},{"ARG_OF_PERICENTER":"71.7204","PERIAPSIS":"545.592","MEAN_ELEMENT_THEORY":"SGP4","RA_OF_ASC_NODE":"195.0383","SITE":"AFETR","TIME_SYSTEM":"UTC","CENTER_NAME":"EARTH","INCLINATION":"53.0522","OBJECT_NAME":"STARLINK-1705","MEAN_MOTION":"15.06576775","EPOCH":"2023-04-24T17:39:57.012192","MEAN_MOTION_DOT":"0.00123560","PERIOD":"95.581","RCS_SIZE":"LARGE","DECAY_DATE":null,"FILE":"3893510","GP_ID":"230706468","OBJECT_TYPE":"PAYLOAD","BSTAR":"0.00813110000000","EPHEMERIS_TYPE":"0","NORAD_CAT_ID":"46579","MEAN_MOTION_DDOT":"0.0000000000000","REV_AT_EPOCH":"14144","OBJECT_ID":"2020-070AZ","TLE_LINE2":"2 46579  53.0522 195.0383 0001559  71.7204 288.3955 15.06576775141443","REF_FRAME":"TEME","APOAPSIS":"547.751","MEAN_ANOMALY":"288.3955","COUNTRY_CODE":"US","ECCENTRICITY":"0.00015590","TLE_LINE1":"1 46579U 20070AZ  23114.73607653  .00123560  00000-0  81311-2 0  9991","SEMIMAJOR_AXIS":"6924.807","ELEMENT_SET_NO":"999","LAUNCH_DATE":"2020-10-06","CLASSIFICATION_TYPE":"U"},{"MEAN_MOTION_DDOT":"0.0000000000000","REF_FRAME":"TEME","APOAPSIS":"547.700","TLE_LINE2":"2 46580  53.0546 195.1355 0000945  95.7324 264.3773 15.06454745141475","REV_AT_EPOCH":"14147","OBJECT_ID":"2020-070BA","DECAY_DATE":null,"FILE":"3893510","OBJECT_TYPE":"PAYLOAD","BSTAR":"0.00463940000000","NORAD_CAT_ID":"46580","EPHEMERIS_TYPE":"0","GP_ID":"230706972","ELEMENT_SET_NO":"999","SEMIMAJOR_AXIS":"6925.181","LAUNCH_DATE":"2020-10-06","CLASSIFICATION_TYPE":"U","MEAN_ANOMALY":"264.3773","TLE_LINE1":"1 46580U 20070BA  23114.71400552  .00069610  00000-0  46394-2 0  9997","ECCENTRICITY":"0.00009450","COUNTRY_CODE":"US","SITE":"AFETR","RA_OF_ASC_NODE":"195.1355","CENTER_NAME":"EARTH","TIME_SYSTEM":"UTC","PERIAPSIS":"546.391","MEAN_ELEMENT_THEORY":"SGP4","ARG_OF_PERICENTER":"95.7324","PERIOD":"95.589","RCS_SIZE":"LARGE","MEAN_MOTION":"15.06454745","OBJECT_NAME":"STARLINK-1708","INCLINATION":"53.0546","MEAN_MOTION_DOT":"0.00069610","EPOCH":"2023-04-24T17:08:10.076928"}];
